{"fetched_at":"2026-03-29T16:36:15Z","count":15609,"tles":[{"name":"STARLINK-31082","line1":"1 58606U 23200T   26087.91680581  .00002364  00000+0  97774-4 0  9995","line2":"2 58606  43.0056  60.0724 0001665 253.0016 107.0653 15.26745514126550","category":"Starlink"}]}